[{"OBJECT_NAME":"KINEIS-3C","OBJECT_ID":"2024-172A","EPOCH":"2026-03-09T20:22:22.104480","MEAN_MOTION":14.72318845,"ECCENTRICITY":0.00034983,"INCLINATION":98.0288,"RA_OF_ASC_NODE":159.8485,"ARG_OF_PERICENTER":99.6401,"MEAN_ANOMALY":260.5202,"EPHEMERIS_TYPE":0,"CLASSIFICATION_TYPE":"U","NORAD_CAT_ID":61220,"ELEMENT_SET_NO":999,"REV_AT_EPOCH":7845,"BSTAR":0.00048160166,"MEAN_MOTION_DOT":2.996e-5,"MEAN_MOTION_DDOT":0},{"OBJECT_NAME":"CZ-4C R\/B","OBJECT_ID":"2022-035B","EPOCH":"2026-03-09T17:12:26.005824","MEAN_MOTION":14.7427579,"ECCENTRICITY":0.01045469,"INCLINATION":98.2415,"RA_OF_ASC_NODE":134.9721,"ARG_OF_PERICENTER":190.6082,"MEAN_ANOMALY":169.2921,"EPHEMERIS_TYPE":0,"CLASSIFICATION_TYPE":"U","NORAD_CAT_ID":52201,"ELEMENT_SET_NO":999,"REV_AT_EPOCH":21079,"BSTAR":0.0001664192,"MEAN_MOTION_DOT":1.142e-5,"MEAN_MOTION_DDOT":0}]
